ONEWEB-0098             
1 45442U 20020U   25217.32638686  .00000235  00000+0  62709-3 0  9998
2 45442  87.8804  84.0127 0001691  72.3549 287.7763 13.11414470261246
ONEWEB-0055             
1 45443U 20020V   25217.61462196  .00000472  00000+0  12964-2 0  9992
2 45443  87.8798  83.9570 0001733  78.3992 281.7330 13.11417633261253
ONEWEB-0093             
1 45444U 20020W   25217.36127441 -.00000312  00000+0 -91570-3 0  9992
2 45444  87.8805  83.9923 0002088  90.6941 269.4426 13.11418175261284
ONEWEB-0029             
1 45445U 20020X   25217.60613857  .00000309  00000+0  83479-3 0  9994
2 45445  87.8806  83.9555 0001875  81.5465 278.5875 13.11419156261290
ONEWEB-0068             
1 45446U 20020Y   25217.36098996 -.00000377  00000+0 -10994-2 0  9997
2 45446  87.8806  83.9933 0001933  81.9373 278.1974 13.11419055261203
ONEWEB-0046             
1 45447U 20020Z   25217.35265478 -.00000541  00000+0 -15615-2 0  9996
2 45447  87.8804  84.0048 0001840  89.2556 270.8783 13.11417277261214
ONEWEB-0063             
1 45448U 20020AA  25217.61037577  .00000447  00000+0  12248-2 0  9995
2 45448  87.8805  83.9516 0001605  87.4656 272.6655 13.11418914261334
ONEWEB-0019             
1 45449U 20020AB  25217.35519317 -.00000495  00000+0 -14316-2 0  9997
2 45449  87.8803  84.0200 0001834  78.5695 281.5639 13.11416236261148
